KUIPER-00157            
1 65970U 25228Z   25350.30140392  .00017517  00000+0  49953-3 0  9996
2 65970  51.8810   3.4309 0007658  39.9984 320.1565 15.36120992 10965
